OBJECT_NAME,OBJECT_ID,EPOCH,MEAN_MOTION,ECCENTRICITY,INCLINATION,RA_OF_ASC_NODE,ARG_OF_PERICENTER,MEAN_ANOMALY,EPHEMERIS_TYPE,CLASSIFICATION_TYPE,NORAD_CAT_ID,ELEMENT_SET_NO,REV_AT_EPOCH,BSTAR,MEAN_MOTION_DOT,MEAN_MOTION_DDOT
STARLINK-32647,2024-229J,2026-05-10T18:19:28.065792,15.27566022,.00013861,43.0000,280.2520,263.6897,96.3797,0,U,62200,999,8005,.12776935E-2,.3505E-3,0
STARLINK-32667,2024-229K,2026-05-11T02:52:34.075776,15.27576631,.00013366,43.0026,277.7680,270.7297,89.3402,0,U,62201,999,8011,.65671546E-3,.17851E-3,0
STARLINK-32655,2024-229L,2026-05-11T02:26:52.317024,15.27579082,.0001397,42.9995,278.4882,267.7870,92.2821,0,U,62202,999,8010,.37789E-3,.10151E-3,0
STARLINK-32665,2024-229M,2026-05-10T16:36:02.147328,15.27580568,.00013412,43.0007,280.5742,276.1337,83.9362,0,U,62203,999,8004,.63157616E-3,.17158E-3,0
STARLINK-32664,2024-229N,2026-05-11T00:00:02.000160,15.48037032,.0020185,42.9963,271.5670,331.8137,60.7007,0,U,62204,999,556,.15603E-2,.84917E-3,0
STARLINK-32660,2024-229P,2026-05-11T01:24:55.399392,15.27598812,.0001276,42.9991,264.2967,274.0416,86.0289,0,U,62205,999,8026,.99813E-3,.27322E-3,0
STARLINK-32448,2024-229Q,2026-05-11T02:58:07.199616,15.27584189,.00014871,43.0019,277.7957,264.9662,95.1020,0,U,62206,999,8011,.49195103E-3,.13301E-3,0
STARLINK-32430,2024-229R,2026-05-11T02:18:19.298880,15.27584912,.0001537,42.9986,274.9895,270.7086,89.3589,0,U,62207,999,8014,.49361E-3,.13348E-3,0
STARLINK-32675,2024-229S,2026-05-10T21:12:57.978432,15.27604149,.00016998,43.0006,279.4362,261.5168,98.5491,0,U,62208,999,8007,.91041172E-3,.24894E-3,0
STARLINK-32671,2024-229T,2026-05-11T02:47:13.511040,15.27588178,.0001274,43.0001,278.5920,267.2486,92.8220,0,U,62209,999,8010,.31292E-3,.8361E-4,0
STARLINK-32670,2024-229U,2026-05-10T19:27:41.494752,15.27582978,.00013937,43.0035,279.7456,266.2202,93.8490,0,U,62210,999,8006,.40871071E-3,.11002E-3,0
STARLINK-32642,2024-229V,2026-05-11T03:09:13.404096,15.27584681,.00013594,43.0027,277.8540,266.0474,94.0222,0,U,62211,999,8011,.55162353E-3,.1495E-3,0
STARLINK-32668,2024-229W,2026-05-11T02:23:52.387296,15.27586220,.0001464,42.9999,275.0190,275.3881,84.6804,0,U,62212,999,8014,.33913E-3,.9083E-4,0
STARLINK-32669,2024-229X,2026-05-11T02:32:25.533312,15.27582645,.0001508,42.9997,278.5144,271.5606,88.5073,0,U,62213,999,8010,.51358E-3,.13898E-3,0
STARLINK-32666,2024-229Y,2026-05-11T02:41:40.508160,15.27584504,.0001445,43.0001,278.5609,268.6630,91.4056,0,U,62214,999,8010,.51321E-3,.13889E-3,0
STARLINK-32662,2024-229Z,2026-05-11T02:21:19.166400,15.27587963,.0001365,42.9957,278.4551,282.3535,77.7164,0,U,62215,999,8010,.34729E-3,.9309E-4,0
COSMOS 2580,2024-230A,2026-05-11T05:06:58.318272,13.96676898,.0006663,67.1419,140.7142,265.4704,94.5620,0,U,62216,999,7297,.27194E-4,-.38E-6,0
STARLINK-11394 [DTC],2024-231A,2026-05-11T00:52:42.697920,15.69780566,.0001525,53.1579,153.9316,121.7172,238.3994,0,U,62218,999,8320,.14131E-2,.174768E-2,0
STARLINK-11490 [DTC],2024-231B,2026-05-10T08:11:15.538848,15.69767379,.00010722,53.1576,157.4162,60.3089,299.8036,0,U,62219,999,8309,.10413635E-2,.127836E-2,0
STARLINK-11466 [DTC],2024-231C,2026-05-11T01:13:54.371136,15.69784126,.0000943,53.1569,154.0275,80.9401,279.1724,0,U,62220,999,8320,.97165E-3,.119196E-2,0
STARLINK-11468 [DTC],2024-231D,2026-05-11T01:28:02.184096,15.69807998,.000121,53.1571,154.0913,104.6268,255.4885,0,U,62221,999,8320,.15794E-2,.196142E-2,0
STARLINK-11488 [DTC],2024-231E,2026-05-10T08:18:19.371456,15.69716013,.00011596,53.1573,157.4466,74.9369,285.1777,0,U,62222,999,8309,.89099773E-3,.108807E-2,0
STARLINK-11483 [DTC],2024-231F,2026-05-10T10:32:14.559360,15.69735495,.00012112,53.1575,156.5909,85.6164,274.4992,0,U,62223,999,8311,.64672947E-3,.7859E-3,0
STARLINK-11492 [DTC],2024-231G,2026-05-11T01:20:58.245216,15.69751974,.0001448,53.1573,154.0694,109.0374,251.0801,0,U,62224,999,8320,.90045E-3,.11015E-2,0
STARLINK-11471 [DTC],2024-231H,2026-05-11T01:56:08.458080,15.69786561,.0001598,53.1577,153.4966,101.7624,258.3573,0,U,62225,999,8321,.12261E-2,.151171E-2,0
STARLINK-11475 [DTC],2024-231J,2026-05-11T02:03:12.079872,15.69849190,.0001779,53.1568,153.5154,118.6470,241.4727,0,U,62226,999,8321,.15078E-2,.187346E-2,0
STARLINK-11469 [DTC],2024-231K,2026-05-10T14:03:51.478272,15.69761826,.00019462,53.1572,156.0907,151.0333,209.0794,0,U,62227,999,8313,.10830934E-2,.13304E-2,0
STARLINK-11476 [DTC],2024-231L,2026-05-11T01:42:00.793728,15.69787969,.0000953,53.1573,153.4177,115.4110,244.7006,0,U,62228,999,8322,.9553E-3,.117171E-2,0
STARLINK-11485 [DTC],2024-231M,2026-05-10T07:50:04.150752,15.69712128,.00011084,53.1581,157.3117,80.9434,279.1709,0,U,62229,999,8309,.11541415E-2,.141657E-2,0
STARLINK-11481 [DTC],2024-231N,2026-05-10T08:46:34.662144,15.69723859,.00008847,53.1574,157.5702,90.5700,269.5419,0,U,62230,999,8309,.7179917E-3,.87365E-3,0
STARLINK-32650,2024-231P,2026-05-11T04:00:00.999936,15.30198819,.00009601,53.1590,289.6116,87.1655,190.3107,0,U,62231,999,559,-.43688982E-3,-.13275E-3,0
STARLINK-32636,2024-231Q,2026-05-11T03:23:51.668736,15.30203665,.0001453,53.1602,289.2926,77.4329,282.6834,0,U,62232,999,8133,.34972E-3,.10014E-3,0
STARLINK-32643,2024-231R,2026-05-10T19:48:59.546880,15.31704214,.0001008,53.1595,278.0950,82.0976,278.0140,0,U,62233,999,8145,.43485067E-3,.13154E-3,0
STARLINK-32652,2024-231S,2026-05-11T04:00:00.999936,15.30167482,.0000962,53.1601,289.4256,92.9408,277.5413,0,U,62234,999,555,-.22950117E-3,-.7143E-4,0
STARLINK-32631,2024-231T,2026-05-11T03:11:54.404448,15.31722554,.00008907,53.1614,276.4604,84.6141,275.4962,0,U,62235,999,8150,.60842152E-3,.18575E-3,0
STARLINK-32641,2024-231U,2026-05-11T02:26:59.868384,15.30199423,.0001075,53.1586,276.9727,94.9020,265.2104,0,U,62236,999,8149,.26275E-3,.743E-4,0
QIANFAN-37,2024-232B,2026-05-11T03:45:00.091584,13.51007622,.0002545,89.0106,26.2966,64.4241,295.7173,0,U,62238,999,11934,.1564E-3,.113E-5,0
QIANFAN-38,2024-232C,2026-05-11T04:20:35.837376,13.51007043,.0016007,89.0112,26.2201,118.0841,242.1930,0,U,62239,999,11940,.17965E-3,.128E-5,0
QIANFAN-39,2024-232D,2026-05-11T03:46:21.165024,14.25503649,.0014669,89.0094,20.2778,316.5863,43.4174,0,U,62240,999,12267,.12293E-3,.305E-5,0
QIANFAN-40,2024-232E,2026-05-11T03:21:20.245824,13.51006820,.00148391,89.0140,25.8507,125.0807,235.1739,0,U,62241,999,11976,.17712728E-3,.127E-5,0
QIANFAN-41,2024-232F,2026-05-11T03:33:10.915200,13.51011383,.0015521,89.0111,26.1723,114.4543,245.8230,0,U,62242,999,11942,.16919E-3,.121E-5,0
QIANFAN-42,2024-232G,2026-05-11T04:19:18.841152,14.24593944,.0013765,89.0092,20.3446,324.1566,35.8702,0,U,62243,999,12264,.12076E-3,.295E-5,0
QIANFAN-43,2024-232H,2026-05-11T03:27:16.174080,13.51008304,.0016918,89.0115,26.2445,119.6773,240.6065,0,U,62244,999,8803,.16754E-3,.12E-5,0
QIANFAN-44,2024-232J,2026-05-11T03:09:29.150496,13.51005022,.00152121,89.0113,26.0542,116.4796,243.7917,0,U,62245,999,11950,.15162958E-3,.11E-5,0
QIANFAN-45,2024-232K,2026-05-11T04:08:43.084032,13.51008869,.0015881,89.0117,26.2019,116.2552,244.0233,0,U,62246,999,11943,.14881E-3,.108E-5,0
QIANFAN-46,2024-232L,2026-05-11T04:44:15.901728,13.51007223,.0015805,89.0113,26.2622,121.2354,239.0348,0,U,62247,999,11939,.14964E-3,.109E-5,0
QIANFAN-47,2024-232M,2026-05-11T03:03:33.758784,13.51007179,.00162441,89.0109,26.1963,120.7875,239.4878,0,U,62248,999,11941,.14979197E-3,.109E-5,0
QIANFAN-48,2024-232N,2026-05-11T02:10:15.420864,13.51006129,.0018419,89.0113,26.2076,123.9516,236.3389,0,U,62249,999,11941,.15315E-3,.111E-5,0
QIANFAN-49,2024-232P,2026-05-11T03:39:06.886656,13.51005167,.0015648,89.0112,26.2127,117.8828,242.3911,0,U,62250,999,8801,.17219E-3,.123E-5,0
QIANFAN-50,2024-232Q,2026-05-11T02:28:00.732000,13.51007288,.0017263,89.0117,26.2339,119.7866,240.5005,0,U,62251,999,8803,.16878E-3,.121E-5,0
QIANFAN-51,2024-232R,2026-05-11T03:50:57.619104,13.51007126,.0014682,89.0111,26.2129,122.1315,238.1263,0,U,62252,999,8803,.15935E-3,.115E-5,0
QIANFAN-52,2024-232S,2026-05-11T04:32:28.500000,13.51016360,.0016867,89.0107,26.0779,115.7320,244.5574,0,U,62253,999,8812,.16834E-3,.121E-5,0
QIANFAN-53,2024-232T,2026-05-11T04:02:48.951168,13.51006927,.0015725,89.0115,26.1957,116.4538,243.8228,0,U,62254,999,8808,.15647E-3,.113E-5,0
QIANFAN-54,2024-232U,2026-05-11T03:15:22.395168,13.51005505,.00030019,89.0106,25.8644,120.8244,239.3203,0,U,62255,999,11958,.15871707E-3,.114E-5,0
PROBA-3 CSC,2024-233A,2026-04-13T14:28:21.862848,1.22066656,.8010887,59.6796,102.9076,203.6839,74.2449,0,U,62256,999,603,-.78863273E-2,.84E-6,0
PROBA-3 OSC,2024-233C,2026-05-05T17:12:10.372608,1.22074175,.80082107,59.7015,101.0551,204.3465,72.2477,0,U,62258,999,629,-.47638767E-2,-.81E-6,0
SXM-9,2024-234A,2026-05-10T21:06:52.857216,1.00271450,.00049136,0.0170,303.5739,10.5452,146.1335,0,U,62259,999,520,0,-.195E-5,0
SENTINEL-1C,2024-235A,2026-05-11T04:00:17.472960,14.59197914,.00013773,98.1831,139.0073,89.1593,270.9764,0,U,62261,999,7601,.30726034E-4,.99E-6,0
STARLINK-32632,2024-231V,2026-05-10T20:20:41.097696,15.30170534,.0001068,53.1605,291.0090,66.7844,293.3269,0,U,62262,999,8128,.56107096E-3,.1628E-3,0
STARLINK-11496 [DTC],2024-237A,2026-05-11T00:49:02.536032,15.70872367,.0002871,43.0010,41.1587,266.7908,93.2631,0,U,62267,999,8285,.10959E-2,.142825E-2,0
STARLINK-11501 [DTC],2024-237B,2026-05-11T03:06:17.222400,15.70858510,.00017188,43.0017,40.1368,272.8797,87.1874,0,U,62268,999,8282,.1027326E-2,.133615E-2,0
STARLINK-11491 [DTC],2024-237C,2026-05-11T02:58:38.493696,15.70862907,.0001768,43.0014,40.0919,260.3278,99.7390,0,U,62269,999,8287,.12315159E-2,.160821E-2,0
STARLINK-11479 [DTC],2024-237D,2026-05-11T03:21:35.029728,15.71073743,.00019306,42.9999,40.2197,287.6373,72.4283,0,U,62270,999,8287,.18284375E-2,.243552E-2,0
STARLINK-11489 [DTC],2024-237E,2026-05-11T02:43:31.285056,15.70925946,.0002305,42.9975,40.9053,262.5567,97.5038,0,U,62271,999,8286,.99033E-3,.129089E-2,0
STARLINK-11494 [DTC],2024-237F,2026-05-11T00:41:22.832736,15.70895280,.0000925,42.9995,41.1133,223.3818,136.6977,0,U,62272,999,8280,.10706E-2,.139573E-2,0
